{
"type": "FeatureCollection",
"name": "blampung_high_traffics_4326",
"crs": { "type": "name", "properties": { "name": "urn:ogc:def:crs:OGC:1.3:CRS84" } },
"features": [
{"type":"Feature","properties":{"heavy_weekend":true,"heavy_weekday":true},"geometry":{"type":"LineString","coordinates":[[105.239997287816124,-5.372515248704],[105.240214638280591,-5.372758830958817],[105.240882115274147,-5.373251087821298],[105.241451245775522,-5.373577481394636],[105.241451245775522,-5.373577481394636],[105.241451245775522,-5.373577481394636],[105.241451245775522,-5.373577481394636],[105.241451245775522,-5.373577481394636]]}},
{"type":"Feature","properties":{"heavy_weekend":true,"heavy_weekday":true},"geometry":{"type":"LineString","coordinates":[[105.259067521881263,-5.380864726447909],[105.259098878983124,-5.381621637123264],[105.25874231017869,-5.382461663168216]]}},
{"type":"Feature","properties":{"heavy_weekend":true,"heavy_weekday":true},"geometry":{"type":"LineString","coordinates":[[105.259438620687575,-5.38300906764089],[105.258716405687196,-5.382524543969566],[105.25779202928365,-5.382040104921519]]}},
{"type":"Feature","properties":{"heavy_weekend":true,"heavy_weekday":true},"geometry":{"type":"LineString","coordinates":[[105.25400792098884,-5.380160260288242],[105.254672350990404,-5.380601396333272],[105.255538923024744,-5.380991792927918]]}},
{"type":"Feature","properties":{"heavy_weekend":true,"heavy_weekday":true},"geometry":{"type":"LineString","coordinates":[[105.256039482445374,-5.412219131268217],[105.255497644955554,-5.413597116543227],[105.254909021381266,-5.41491888611066],[105.254385840175232,-5.416193765216486],[105.253993433330393,-5.417103061820653],[105.25353554512526,-5.417974895644784]]}},
{"type":"Feature","properties":{"heavy_weekend":true,"heavy_weekday":true},"geometry":{"type":"LineString","coordinates":[[105.2582038476083,-5.421768781347615],[105.258267540756734,-5.417597996108423]]}},
{"type":"Feature","properties":{"heavy_weekend":true,"heavy_weekday":true},"geometry":{"type":"LineString","coordinates":[[105.254911885558613,-5.421751432199972],[105.258082524525889,-5.422368672430494]]}},
{"type":"Feature","properties":{"heavy_weekend":true,"heavy_weekday":true},"geometry":{"type":"LineString","coordinates":[[105.278333747954022,-5.444451800473978],[105.279418771268695,-5.444008223377609],[105.280524011039574,-5.443826451984343]]}},
{"type":"Feature","properties":{"heavy_weekend":true,"heavy_weekday":true},"geometry":{"type":"LineString","coordinates":[[105.258538518995806,-5.410653535307779],[105.25836225190659,-5.41137409151964],[105.258374987632308,-5.411664806519736]]}},
{"type":"Feature","properties":{"heavy_weekend":true,"heavy_weekday":false},"geometry":{"type":"LineString","coordinates":[[105.258288332757999,-5.414609721806702],[105.258244766123283,-5.417482317564902]]}},
{"type":"Feature","properties":{"heavy_weekend":true,"heavy_weekday":true},"geometry":{"type":"LineString","coordinates":[[105.268689239887479,-5.425226140560099],[105.268999398667006,-5.427054488039604]]}},
{"type":"Feature","properties":{"heavy_weekend":true,"heavy_weekday":false},"geometry":{"type":"LineString","coordinates":[[105.267212253471499,-5.425935412329912],[105.268411815280444,-5.426036112014367],[105.268828495271961,-5.426048580764127]]}},
{"type":"Feature","properties":{"heavy_weekend":true,"heavy_weekday":false},"geometry":{"type":"LineString","coordinates":[[105.28251299841186,-5.400612601309877],[105.281697220567821,-5.399368018968552],[105.281463929063804,-5.39855112124765]]}},
{"type":"Feature","properties":{"heavy_weekend":true,"heavy_weekday":false},"geometry":{"type":"LineString","coordinates":[[105.273917663859351,-5.407561091164797],[105.280030097033077,-5.403940132037183]]}},
{"type":"Feature","properties":{"heavy_weekend":true,"heavy_weekday":true},"geometry":{"type":"LineString","coordinates":[[105.280030088099039,-5.403920679522021],[105.283290059772014,-5.40207117806111]]}},
{"type":"Feature","properties":{"heavy_weekend":true,"heavy_weekday":true},"geometry":{"type":"LineString","coordinates":[[105.229959465638416,-5.366019605100151],[105.227581219302223,-5.364404408747465],[105.224983740384985,-5.361118413745687],[105.221566145323564,-5.357065746803459],[105.22104655177867,-5.356107238587903]]}},
{"type":"Feature","properties":{"heavy_weekend":true,"heavy_weekday":false},"geometry":{"type":"LineString","coordinates":[[105.226131783022836,-5.361720599134038],[105.228317683101295,-5.360569352754403],[105.230339713730146,-5.359719464807002]]}},
{"type":"Feature","properties":{"heavy_weekend":true,"heavy_weekday":false},"geometry":{"type":"LineString","coordinates":[[105.253287561221271,-5.446224078844137],[105.253643929398422,-5.445551154276487],[105.254189411505408,-5.445592972786407]]}},
{"type":"Feature","properties":{"heavy_weekend":true,"heavy_weekday":null},"geometry":{"type":"LineString","coordinates":[[105.239997287816124,-5.372515248704],[105.240214638280591,-5.372758830958817],[105.240882115274147,-5.373251087821298],[105.241451245775522,-5.373577481394636],[105.241451245775522,-5.373577481394636],[105.241451245775522,-5.373577481394636],[105.241451245775522,-5.373577481394636],[105.241451245775522,-5.373577481394636]]}},
{"type":"Feature","properties":{"heavy_weekend":true,"heavy_weekday":null},"geometry":{"type":"LineString","coordinates":[[105.259067521881263,-5.380864726447909],[105.259098878983124,-5.381621637123264],[105.25874231017869,-5.382461663168216]]}},
{"type":"Feature","properties":{"heavy_weekend":true,"heavy_weekday":true},"geometry":{"type":"LineString","coordinates":[[105.259438620687575,-5.38300906764089],[105.258716405687196,-5.382524543969566],[105.25779202928365,-5.382040104921519]]}},
{"type":"Feature","properties":{"heavy_weekend":true,"heavy_weekday":null},"geometry":{"type":"LineString","coordinates":[[105.25400792098884,-5.380160260288242],[105.254672350990404,-5.380601396333272],[105.255538923024744,-5.380991792927918]]}},
{"type":"Feature","properties":{"heavy_weekend":true,"heavy_weekday":null},"geometry":{"type":"LineString","coordinates":[[105.256039482445374,-5.412219131268217],[105.255497644955554,-5.413597116543227],[105.254909021381266,-5.41491888611066],[105.254385840175232,-5.416193765216486],[105.253993433330393,-5.417103061820653],[105.25353554512526,-5.417974895644784]]}},
{"type":"Feature","properties":{"heavy_weekend":true,"heavy_weekday":null},"geometry":{"type":"LineString","coordinates":[[105.2582038476083,-5.421768781347615],[105.258267540756734,-5.417597996108423]]}},
{"type":"Feature","properties":{"heavy_weekend":true,"heavy_weekday":null},"geometry":{"type":"LineString","coordinates":[[105.254911885558613,-5.421751432199972],[105.258082524525889,-5.422368672430494]]}},
{"type":"Feature","properties":{"heavy_weekend":true,"heavy_weekday":null},"geometry":{"type":"LineString","coordinates":[[105.278333747954022,-5.444451800473978],[105.279418771268695,-5.444008223377609],[105.280524011039574,-5.443826451984343]]}},
{"type":"Feature","properties":{"heavy_weekend":true,"heavy_weekday":true},"geometry":{"type":"LineString","coordinates":[[105.258538518995806,-5.410653535307779],[105.25836225190659,-5.41137409151964],[105.258374987632308,-5.411664806519736]]}},
{"type":"Feature","properties":{"heavy_weekend":false,"heavy_weekday":true},"geometry":{"type":"LineString","coordinates":[[105.258288332757999,-5.414609721806702],[105.258244766123283,-5.417482317564902]]}},
{"type":"Feature","properties":{"heavy_weekend":true,"heavy_weekday":true},"geometry":{"type":"LineString","coordinates":[[105.268689239887479,-5.425226140560099],[105.268999398667006,-5.427054488039604]]}},
{"type":"Feature","properties":{"heavy_weekend":false,"heavy_weekday":true},"geometry":{"type":"LineString","coordinates":[[105.267212253471499,-5.425935412329912],[105.268411815280444,-5.426036112014367],[105.268828495271961,-5.426048580764127]]}},
{"type":"Feature","properties":{"heavy_weekend":false,"heavy_weekday":true},"geometry":{"type":"LineString","coordinates":[[105.28251299841186,-5.400612601309877],[105.281697220567821,-5.399368018968552],[105.281463929063804,-5.39855112124765]]}},
{"type":"Feature","properties":{"heavy_weekend":false,"heavy_weekday":true},"geometry":{"type":"LineString","coordinates":[[105.273917663859351,-5.407561091164797],[105.280030097033077,-5.403940132037183]]}},
{"type":"Feature","properties":{"heavy_weekend":true,"heavy_weekday":true},"geometry":{"type":"LineString","coordinates":[[105.280030088099039,-5.403920679522021],[105.283290059772014,-5.40207117806111]]}},
{"type":"Feature","properties":{"heavy_weekend":true,"heavy_weekday":true},"geometry":{"type":"LineString","coordinates":[[105.229959465638416,-5.366019605100151],[105.227581219302223,-5.364404408747465],[105.224983740384985,-5.361118413745687],[105.221566145323564,-5.357065746803459],[105.22104655177867,-5.356107238587903]]}},
{"type":"Feature","properties":{"heavy_weekend":false,"heavy_weekday":true},"geometry":{"type":"LineString","coordinates":[[105.226131783022836,-5.361720599134038],[105.228317683101295,-5.360569352754403],[105.230339713730146,-5.359719464807002]]}},
{"type":"Feature","properties":{"heavy_weekend":false,"heavy_weekday":true},"geometry":{"type":"LineString","coordinates":[[105.253287561221271,-5.446224078844137],[105.253643929398422,-5.445551154276487],[105.254189411505408,-5.445592972786407]]}}
]
}
