{
"type": "FeatureCollection",
"name": "blampung_high_traffics_32748",
"crs": { "type": "name", "properties": { "name": "urn:ogc:def:crs:EPSG::32748" } },
"features": [
{"type":"Feature","properties":{"heavy_weekend":true,"heavy_weekday":true},"geometry":{"type":"LineString","coordinates":[[526589.228206469444558,9406152.981403039768338],[526613.297969316132367,9406126.046192234382033],[526687.226526631042361,9406071.602681033313274],[526750.266381705761887,9406035.49803676456213],[526750.266381705761887,9406035.49803676456213],[526750.266381705761887,9406035.49803676456213],[526750.266381705761887,9406035.49803676456213],[526750.266381705761887,9406035.49803676456213]]}},
{"type":"Feature","properties":{"heavy_weekend":true,"heavy_weekday":true},"geometry":{"type":"LineString","coordinates":[[528701.636441063834354,9405229.160981401801109],[528705.074978613411076,9405145.489901030436158],[528665.531796793802641,9405052.649387193843722]]}},
{"type":"Feature","properties":{"heavy_weekend":true,"heavy_weekday":true},"geometry":{"type":"LineString","coordinates":[[528742.649432646110654,9404992.106062393635511],[528662.658927625860088,9405045.699700755998492],[528560.271081199869514,9405099.293339120224118]]}},
{"type":"Feature","properties":{"heavy_weekend":true,"heavy_weekday":true},"geometry":{"type":"LineString","coordinates":[[528141.120834893314168,9405307.26865217089653],[528214.712099511991255,9405258.474444109946489],[528310.70070553640835,9405215.279571397230029]]}},
{"type":"Feature","properties":{"heavy_weekend":true,"heavy_weekday":true},"geometry":{"type":"LineString","coordinates":[[528364.706375523586757,9401763.356529708951712],[528304.615767452050932,9401611.057919597253203],[528239.344934546737932,9401464.975579285994172],[528181.326416408759542,9401324.073463810607791],[528137.812527805217542,9401223.577102035284042],[528087.046324434457347,9401127.224920127540827]]}},
{"type":"Feature","properties":{"heavy_weekend":true,"heavy_weekday":true},"geometry":{"type":"LineString","coordinates":[[528604.032762842951342,9400707.626708593219519],[528611.285077610169537,9401168.666718795895576]]}},
{"type":"Feature","properties":{"heavy_weekend":true,"heavy_weekday":true},"geometry":{"type":"LineString","coordinates":[[528239.344934546737932,9400709.698798526078463],[528590.56417827506084,9400641.319830721244216]]}},
{"type":"Feature","properties":{"heavy_weekend":true,"heavy_weekday":true},"geometry":{"type":"LineString","coordinates":[[530832.902941122069024,9398199.230014560744166],[530953.121905714739114,9398248.208111247047782],[531075.56714742956683,9398268.244605345651507]]}},
{"type":"Feature","properties":{"heavy_weekend":true,"heavy_weekday":true},"geometry":{"type":"LineString","coordinates":[[528641.631508989143185,9401936.301859673112631],[528622.070139564108104,9401856.659141300246119],[528623.467380237299949,9401824.522605815902352]]}},
{"type":"Feature","properties":{"heavy_weekend":true,"heavy_weekday":false},"geometry":{"type":"LineString","coordinates":[[528613.729018778307363,9401498.992704495787621],[528608.767492461716756,9401181.455020233988762]]}},
{"type":"Feature","properties":{"heavy_weekend":true,"heavy_weekday":true},"geometry":{"type":"LineString","coordinates":[[529765.451926114154048,9400324.941541723906994],[529799.721902861027047,9400122.818617645651102]]}},
{"type":"Feature","properties":{"heavy_weekend":true,"heavy_weekday":false},"geometry":{"type":"LineString","coordinates":[[529601.795302466023713,9400246.610166303813457],[529734.678885770146735,9400235.419969813898206],[529780.83844628627412,9400234.021195253357291]]}},
{"type":"Feature","properties":{"heavy_weekend":true,"heavy_weekday":false},"geometry":{"type":"LineString","coordinates":[[531298.128400457557291,9403045.056526405736804],[531207.815600767731667,9403182.676030695438385],[531182.011943713529035,9403272.988830385729671]]}},
{"type":"Feature","properties":{"heavy_weekend":true,"heavy_weekday":false},"geometry":{"type":"LineString","coordinates":[[530345.54339420539327,9402277.397729041054845],[531022.889391879085451,9402677.354413382709026]]}},
{"type":"Feature","properties":{"heavy_weekend":true,"heavy_weekday":true},"geometry":{"type":"LineString","coordinates":[[531022.889391879085451,9402679.504718136042356],[531384.140590638387948,9402883.783669816330075]]}},
{"type":"Feature","properties":{"heavy_weekend":true,"heavy_weekday":true},"geometry":{"type":"LineString","coordinates":[[525477.404504262958653,9406871.441081181168556],[525213.981507099349983,9407050.084263166412711],[524926.335705598816276,9407413.426328219473362],[524547.85438783490099,9407861.548208452761173],[524490.325227534864098,9407967.52297742664814]]}},
{"type":"Feature","properties":{"heavy_weekend":true,"heavy_weekday":false},"geometry":{"type":"LineString","coordinates":[[525053.505428367410786,9407346.81361629255116],[525295.733471736311913,9407473.983339061960578],[525519.794411852490157,9407567.846705866977572]]}},
{"type":"Feature","properties":{"heavy_weekend":true,"heavy_weekday":false},"geometry":{"type":"LineString","coordinates":[[528058.267293733544648,9398004.541701065376401],[528097.775961111416109,9398078.910957306623459],[528158.200981807196513,9398074.26287879049778]]}},
{"type":"Feature","properties":{"heavy_weekend":true,"heavy_weekday":null},"geometry":{"type":"LineString","coordinates":[[526589.228206469444558,9406152.981403039768338],[526613.297969316132367,9406126.046192234382033],[526687.226526631042361,9406071.602681033313274],[526750.266381705761887,9406035.49803676456213],[526750.266381705761887,9406035.49803676456213],[526750.266381705761887,9406035.49803676456213],[526750.266381705761887,9406035.49803676456213],[526750.266381705761887,9406035.49803676456213]]}},
{"type":"Feature","properties":{"heavy_weekend":true,"heavy_weekday":null},"geometry":{"type":"LineString","coordinates":[[528701.636441063834354,9405229.160981401801109],[528705.074978613411076,9405145.489901030436158],[528665.531796793802641,9405052.649387193843722]]}},
{"type":"Feature","properties":{"heavy_weekend":true,"heavy_weekday":true},"geometry":{"type":"LineString","coordinates":[[528742.649432646110654,9404992.106062393635511],[528662.658927625860088,9405045.699700755998492],[528560.271081199869514,9405099.293339120224118]]}},
{"type":"Feature","properties":{"heavy_weekend":true,"heavy_weekday":null},"geometry":{"type":"LineString","coordinates":[[528141.120834893314168,9405307.26865217089653],[528214.712099511991255,9405258.474444109946489],[528310.70070553640835,9405215.279571397230029]]}},
{"type":"Feature","properties":{"heavy_weekend":true,"heavy_weekday":null},"geometry":{"type":"LineString","coordinates":[[528364.706375523586757,9401763.356529708951712],[528304.615767452050932,9401611.057919597253203],[528239.344934546737932,9401464.975579285994172],[528181.326416408759542,9401324.073463810607791],[528137.812527805217542,9401223.577102035284042],[528087.046324434457347,9401127.224920127540827]]}},
{"type":"Feature","properties":{"heavy_weekend":true,"heavy_weekday":null},"geometry":{"type":"LineString","coordinates":[[528604.032762842951342,9400707.626708593219519],[528611.285077610169537,9401168.666718795895576]]}},
{"type":"Feature","properties":{"heavy_weekend":true,"heavy_weekday":null},"geometry":{"type":"LineString","coordinates":[[528239.344934546737932,9400709.698798526078463],[528590.56417827506084,9400641.319830721244216]]}},
{"type":"Feature","properties":{"heavy_weekend":true,"heavy_weekday":null},"geometry":{"type":"LineString","coordinates":[[530832.902941122069024,9398199.230014560744166],[530953.121905714739114,9398248.208111247047782],[531075.56714742956683,9398268.244605345651507]]}},
{"type":"Feature","properties":{"heavy_weekend":true,"heavy_weekday":true},"geometry":{"type":"LineString","coordinates":[[528641.631508989143185,9401936.301859673112631],[528622.070139564108104,9401856.659141300246119],[528623.467380237299949,9401824.522605815902352]]}},
{"type":"Feature","properties":{"heavy_weekend":false,"heavy_weekday":true},"geometry":{"type":"LineString","coordinates":[[528613.729018778307363,9401498.992704495787621],[528608.767492461716756,9401181.455020233988762]]}},
{"type":"Feature","properties":{"heavy_weekend":true,"heavy_weekday":true},"geometry":{"type":"LineString","coordinates":[[529765.451926114154048,9400324.941541723906994],[529799.721902861027047,9400122.818617645651102]]}},
{"type":"Feature","properties":{"heavy_weekend":false,"heavy_weekday":true},"geometry":{"type":"LineString","coordinates":[[529601.795302466023713,9400246.610166303813457],[529734.678885770146735,9400235.419969813898206],[529780.83844628627412,9400234.021195253357291]]}},
{"type":"Feature","properties":{"heavy_weekend":false,"heavy_weekday":true},"geometry":{"type":"LineString","coordinates":[[531298.128400457557291,9403045.056526405736804],[531207.815600767731667,9403182.676030695438385],[531182.011943713529035,9403272.988830385729671]]}},
{"type":"Feature","properties":{"heavy_weekend":false,"heavy_weekday":true},"geometry":{"type":"LineString","coordinates":[[530345.54339420539327,9402277.397729041054845],[531022.889391879085451,9402677.354413382709026]]}},
{"type":"Feature","properties":{"heavy_weekend":true,"heavy_weekday":true},"geometry":{"type":"LineString","coordinates":[[531022.889391879085451,9402679.504718136042356],[531384.140590638387948,9402883.783669816330075]]}},
{"type":"Feature","properties":{"heavy_weekend":true,"heavy_weekday":true},"geometry":{"type":"LineString","coordinates":[[525477.404504262958653,9406871.441081181168556],[525213.981507099349983,9407050.084263166412711],[524926.335705598816276,9407413.426328219473362],[524547.85438783490099,9407861.548208452761173],[524490.325227534864098,9407967.52297742664814]]}},
{"type":"Feature","properties":{"heavy_weekend":false,"heavy_weekday":true},"geometry":{"type":"LineString","coordinates":[[525053.505428367410786,9407346.81361629255116],[525295.733471736311913,9407473.983339061960578],[525519.794411852490157,9407567.846705866977572]]}},
{"type":"Feature","properties":{"heavy_weekend":false,"heavy_weekday":true},"geometry":{"type":"LineString","coordinates":[[528058.267293733544648,9398004.541701065376401],[528097.775961111416109,9398078.910957306623459],[528158.200981807196513,9398074.26287879049778]]}}
]
}
